STARLINK-3791           
1 52269U 22041J   25283.85846701  .00001753  00000+0  12818-3 0  9990
2 52269  53.2169  61.7382 0001294  92.7814 267.3326 15.08849609191747
STARLINK-3804           
1 52270U 22041K   25284.11608635  .00000569  00000+0  53829-4 0  9996
2 52270  53.2164  60.6107 0001346  85.4467 274.6678 15.08838963191784
STARLINK-3788           
1 52271U 22041L   25283.85480920  .00004615  00000+0  30781-3 0  9999
2 52271  53.2157  61.7532 0001378  86.8799 273.2351 15.08842452191746
STARLINK-3781           
1 52272U 22041M   25284.11336804  .00001251  00000+0  96645-4 0  9996
2 52272  53.2172  60.6312 0001176  92.0943 268.0183 15.08837379191785
STARLINK-3782           
1 52273U 22041N   25284.08488803  .00001301  00000+0  99795-4 0  9995
2 52273  53.2177  51.1065 0001204  86.2475 273.8655 15.08842891191916
STARLINK-3790           
1 52274U 22041P   25283.90632205  .00000885  00000+0  73711-4 0  9999
2 52274  53.2170  61.5224 0001336  89.0934 271.0211 15.08842392191755
STARLINK-3784           
1 52275U 22041Q   25284.11240111  .00000168  00000+0  28637-4 0  9996
2 52275  53.2147  60.5989 0000692  88.2347 271.8724 15.08846084191782
STARLINK-3778           
1 52276U 22041R   25284.10136171  .00001819  00000+0  13230-3 0  9992
2 52276  53.2169  60.6468 0001370  79.1718 280.9429 15.08847447191782
STARLINK-3780           
1 52278U 22041T   25283.76648592  .00001348  00000+0  10276-3 0  9994
2 52278  53.2144  62.1517 0001134  95.8852 264.2269 15.08839307191739
STARLINK-3764           
1 52280U 22041V   25284.08668414  .00059620  00000+0  37637-2 0  9993
2 52280  53.2166  60.7121 0002263 165.2142 194.8917 15.08535499191787
STARLINK-3779           
1 52281U 22041W   25283.90360169  .00001329  00000+0  10157-3 0  9992
2 52281  53.2192  61.5313 0001104  90.1719 269.9400 15.08841532191754
STARLINK-3783           
1 52282U 22041X   25284.08021735 -.00001921  00000+0 -10264-3 0  9995
2 52282  53.2129  50.7442 0001407  94.3736 265.7417 15.08841214191916
STARLINK-3789           
1 52283U 22041Y   25283.82904676  .00000594  00000+0  55405-4 0  9991
2 52283  53.2154  61.8702 0001437  78.7584 281.3570 15.08841122191740
STARLINK-3561           
1 52284U 22041Z   25284.07284725  .00001187  00000+0  92680-4 0  9991
2 52284  53.2161  50.7749 0001207  90.1937 269.9194 15.08839669191918
STARLINK-3802           
1 52286U 22041AB  25284.06548810  .00000482  00000+0  48396-4 0  9992
2 52286  53.2193  50.8087 0001156  85.3702 274.7422 15.08835554191917
STARLINK-3822           
1 52287U 22041AC  25283.88425064 -.00000167  00000+0  75893-5 0  9991
2 52287  53.2169  61.6208 0001441  88.0865 272.0292 15.08831925191759
