[{"OBJECT_NAME":"STARLINK-3791","OBJECT_ID":"2022-041J","EPOCH":"2025-10-10T20:36:11.549664","MEAN_MOTION":15.08849609,"ECCENTRICITY":0.0001294,"INCLINATION":53.2169,"RA_OF_ASC_NODE":61.7382,"ARG_OF_PERICENTER":92.7814,"MEAN_ANOMALY":267.3326,"EPHEMERIS_TYPE":0,"CLASSIFICATION_TYPE":"U","NORAD_CAT_ID":52269,"ELEMENT_SET_NO":999,"REV_AT_EPOCH":19174,"BSTAR":0.00012818,"MEAN_MOTION_DOT":1.753e-5,"MEAN_MOTION_DDOT":0},{"OBJECT_NAME":"STARLINK-3804","OBJECT_ID":"2022-041K","EPOCH":"2025-10-11T02:47:09.860640","MEAN_MOTION":15.08838963,"ECCENTRICITY":0.0001346,"INCLINATION":53.2164,"RA_OF_ASC_NODE":60.6107,"ARG_OF_PERICENTER":85.4467,"MEAN_ANOMALY":274.6678,"EPHEMERIS_TYPE":0,"CLASSIFICATION_TYPE":"U","NORAD_CAT_ID":52270,"ELEMENT_SET_NO":999,"REV_AT_EPOCH":19178,"BSTAR":5.3828998e-5,"MEAN_MOTION_DOT":5.69e-6,"MEAN_MOTION_DDOT":0},{"OBJECT_NAME":"STARLINK-3788","OBJECT_ID":"2022-041L","EPOCH":"2025-10-10T20:30:55.514880","MEAN_MOTION":15.08842452,"ECCENTRICITY":0.0001378,"INCLINATION":53.2157,"RA_OF_ASC_NODE":61.7532,"ARG_OF_PERICENTER":86.8799,"MEAN_ANOMALY":273.2351,"EPHEMERIS_TYPE":0,"CLASSIFICATION_TYPE":"U","NORAD_CAT_ID":52271,"ELEMENT_SET_NO":999,"REV_AT_EPOCH":19174,"BSTAR":0.00030781,"MEAN_MOTION_DOT":4.615e-5,"MEAN_MOTION_DDOT":0},{"OBJECT_NAME":"STARLINK-3781","OBJECT_ID":"2022-041M","EPOCH":"2025-10-11T02:43:14.998656","MEAN_MOTION":15.08837379,"ECCENTRICITY":0.00011769,"INCLINATION":53.2172,"RA_OF_ASC_NODE":60.6312,"ARG_OF_PERICENTER":92.0943,"MEAN_ANOMALY":268.0183,"EPHEMERIS_TYPE":0,"CLASSIFICATION_TYPE":"U","NORAD_CAT_ID":52272,"ELEMENT_SET_NO":999,"REV_AT_EPOCH":19178,"BSTAR":9.6645318e-5,"MEAN_MOTION_DOT":1.251e-5,"MEAN_MOTION_DDOT":0},{"OBJECT_NAME":"STARLINK-3782","OBJECT_ID":"2022-041N","EPOCH":"2025-10-11T02:02:14.325792","MEAN_MOTION":15.08842891,"ECCENTRICITY":0.00012041,"INCLINATION":53.2177,"RA_OF_ASC_NODE":51.1065,"ARG_OF_PERICENTER":86.2475,"MEAN_ANOMALY":273.8655,"EPHEMERIS_TYPE":0,"CLASSIFICATION_TYPE":"U","NORAD_CAT_ID":52273,"ELEMENT_SET_NO":999,"REV_AT_EPOCH":19191,"BSTAR":9.9794553e-5,"MEAN_MOTION_DOT":1.301e-5,"MEAN_MOTION_DDOT":0},{"OBJECT_NAME":"STARLINK-3790","OBJECT_ID":"2022-041P","EPOCH":"2025-10-10T21:45:06.225120","MEAN_MOTION":15.08842392,"ECCENTRICITY":0.0001336,"INCLINATION":53.217,"RA_OF_ASC_NODE":61.5224,"ARG_OF_PERICENTER":89.0934,"MEAN_ANOMALY":271.0211,"EPHEMERIS_TYPE":0,"CLASSIFICATION_TYPE":"U","NORAD_CAT_ID":52274,"ELEMENT_SET_NO":999,"REV_AT_EPOCH":19175,"BSTAR":7.3711e-5,"MEAN_MOTION_DOT":8.85e-6,"MEAN_MOTION_DDOT":0},{"OBJECT_NAME":"STARLINK-3784","OBJECT_ID":"2022-041Q","EPOCH":"2025-10-11T02:41:51.455904","MEAN_MOTION":15.08846084,"ECCENTRICITY":6.927e-5,"INCLINATION":53.2147,"RA_OF_ASC_NODE":60.5989,"ARG_OF_PERICENTER":88.2347,"MEAN_ANOMALY":271.8724,"EPHEMERIS_TYPE":0,"CLASSIFICATION_TYPE":"U","NORAD_CAT_ID":52275,"ELEMENT_SET_NO":999,"REV_AT_EPOCH":19178,"BSTAR":2.8636534e-5,"MEAN_MOTION_DOT":1.68e-6,"MEAN_MOTION_DDOT":0},{"OBJECT_NAME":"STARLINK-3778","OBJECT_ID":"2022-041R","EPOCH":"2025-10-11T02:25:57.651744","MEAN_MOTION":15.08847447,"ECCENTRICITY":0.000137,"INCLINATION":53.2169,"RA_OF_ASC_NODE":60.6468,"ARG_OF_PERICENTER":79.1718,"MEAN_ANOMALY":280.9429,"EPHEMERIS_TYPE":0,"CLASSIFICATION_TYPE":"U","NORAD_CAT_ID":52276,"ELEMENT_SET_NO":999,"REV_AT_EPOCH":19178,"BSTAR":0.0001322972,"MEAN_MOTION_DOT":1.819e-5,"MEAN_MOTION_DDOT":0},{"OBJECT_NAME":"STARLINK-3780","OBJECT_ID":"2022-041T","EPOCH":"2025-10-10T18:23:44.383488","MEAN_MOTION":15.08839307,"ECCENTRICITY":0.00011346,"INCLINATION":53.2144,"RA_OF_ASC_NODE":62.1517,"ARG_OF_PERICENTER":95.8852,"MEAN_ANOMALY":264.2269,"EPHEMERIS_TYPE":0,"CLASSIFICATION_TYPE":"U","NORAD_CAT_ID":52278,"ELEMENT_SET_NO":999,"REV_AT_EPOCH":19173,"BSTAR":0.00010275994,"MEAN_MOTION_DOT":1.348e-5,"MEAN_MOTION_DDOT":0},{"OBJECT_NAME":"STARLINK-3764","OBJECT_ID":"2022-041V","EPOCH":"2025-10-11T02:04:49.509696","MEAN_MOTION":15.08535499,"ECCENTRICITY":0.00022637,"INCLINATION":53.2166,"RA_OF_ASC_NODE":60.7121,"ARG_OF_PERICENTER":165.2142,"MEAN_ANOMALY":194.8917,"EPHEMERIS_TYPE":0,"CLASSIFICATION_TYPE":"U","NORAD_CAT_ID":52280,"ELEMENT_SET_NO":999,"REV_AT_EPOCH":19178,"BSTAR":0.0037637099,"MEAN_MOTION_DOT":0.0005962,"MEAN_MOTION_DDOT":0},{"OBJECT_NAME":"STARLINK-3779","OBJECT_ID":"2022-041W","EPOCH":"2025-10-10T21:41:11.186016","MEAN_MOTION":15.08841532,"ECCENTRICITY":0.0001104,"INCLINATION":53.2192,"RA_OF_ASC_NODE":61.5313,"ARG_OF_PERICENTER":90.1719,"MEAN_ANOMALY":269.94,"EPHEMERIS_TYPE":0,"CLASSIFICATION_TYPE":"U","NORAD_CAT_ID":52281,"ELEMENT_SET_NO":999,"REV_AT_EPOCH":19175,"BSTAR":0.00010157,"MEAN_MOTION_DOT":1.329e-5,"MEAN_MOTION_DDOT":0},{"OBJECT_NAME":"STARLINK-3783","OBJECT_ID":"2022-041X","EPOCH":"2025-10-11T01:55:30.779040","MEAN_MOTION":15.08841214,"ECCENTRICITY":0.00014077,"INCLINATION":53.2129,"RA_OF_ASC_NODE":50.7442,"ARG_OF_PERICENTER":94.3736,"MEAN_ANOMALY":265.7417,"EPHEMERIS_TYPE":0,"CLASSIFICATION_TYPE":"U","NORAD_CAT_ID":52282,"ELEMENT_SET_NO":999,"REV_AT_EPOCH":19191,"BSTAR":-0.00010263824,"MEAN_MOTION_DOT":-1.921e-5,"MEAN_MOTION_DDOT":0},{"OBJECT_NAME":"STARLINK-3789","OBJECT_ID":"2022-041Y","EPOCH":"2025-10-10T19:53:49.640064","MEAN_MOTION":15.08841122,"ECCENTRICITY":0.00014376,"INCLINATION":53.2154,"RA_OF_ASC_NODE":61.8702,"ARG_OF_PERICENTER":78.7584,"MEAN_ANOMALY":281.357,"EPHEMERIS_TYPE":0,"CLASSIFICATION_TYPE":"U","NORAD_CAT_ID":52283,"ELEMENT_SET_NO":999,"REV_AT_EPOCH":19174,"BSTAR":5.5404694e-5,"MEAN_MOTION_DOT":5.94e-6,"MEAN_MOTION_DDOT":0},{"OBJECT_NAME":"STARLINK-3561","OBJECT_ID":"2022-041Z","EPOCH":"2025-10-11T01:44:54.002400","MEAN_MOTION":15.08839669,"ECCENTRICITY":0.00012075,"INCLINATION":53.2161,"RA_OF_ASC_NODE":50.7749,"ARG_OF_PERICENTER":90.1937,"MEAN_ANOMALY":269.9194,"EPHEMERIS_TYPE":0,"CLASSIFICATION_TYPE":"U","NORAD_CAT_ID":52284,"ELEMENT_SET_NO":999,"REV_AT_EPOCH":19191,"BSTAR":9.267975e-5,"MEAN_MOTION_DOT":1.187e-5,"MEAN_MOTION_DDOT":0},{"OBJECT_NAME":"STARLINK-3802","OBJECT_ID":"2022-041AB","EPOCH":"2025-10-11T01:34:18.171840","MEAN_MOTION":15.08835554,"ECCENTRICITY":0.00011562,"INCLINATION":53.2193,"RA_OF_ASC_NODE":50.8087,"ARG_OF_PERICENTER":85.3702,"MEAN_ANOMALY":274.7422,"EPHEMERIS_TYPE":0,"CLASSIFICATION_TYPE":"U","NORAD_CAT_ID":52286,"ELEMENT_SET_NO":999,"REV_AT_EPOCH":19191,"BSTAR":4.8396455e-5,"MEAN_MOTION_DOT":4.82e-6,"MEAN_MOTION_DDOT":0},{"OBJECT_NAME":"STARLINK-3822","OBJECT_ID":"2022-041AC","EPOCH":"2025-10-10T21:13:19.255296","MEAN_MOTION":15.08831925,"ECCENTRICITY":0.0001441,"INCLINATION":53.2169,"RA_OF_ASC_NODE":61.6208,"ARG_OF_PERICENTER":88.0865,"MEAN_ANOMALY":272.0292,"EPHEMERIS_TYPE":0,"CLASSIFICATION_TYPE":"U","NORAD_CAT_ID":52287,"ELEMENT_SET_NO":999,"REV_AT_EPOCH":19175,"BSTAR":7.5893e-6,"MEAN_MOTION_DOT":-1.67e-6,"MEAN_MOTION_DDOT":0}]
